[{"OBJECT_NAME":"NUSAT-50 (NANCY ROMAN)","OBJECT_ID":"2024-149AB","EPOCH":"2026-03-09T19:15:16.765632","MEAN_MOTION":15.29713355,"ECCENTRICITY":0.00025229,"INCLINATION":97.3817,"RA_OF_ASC_NODE":150.7693,"ARG_OF_PERICENTER":238.0469,"MEAN_ANOMALY":122.0527,"EPHEMERIS_TYPE":0,"CLASSIFICATION_TYPE":"U","NORAD_CAT_ID":60493,"ELEMENT_SET_NO":999,"REV_AT_EPOCH":8693,"BSTAR":0.0004225155,"MEAN_MOTION_DOT":0.00012094,"MEAN_MOTION_DDOT":0},{"OBJECT_NAME":"STARLINK-34827","OBJECT_ID":"2025-161Z","EPOCH":"2026-03-09T21:10:48.969408","MEAN_MOTION":15.30204668,"ECCENTRICITY":8.557e-5,"INCLINATION":53.1603,"RA_OF_ASC_NODE":292.9958,"ARG_OF_PERICENTER":129.5295,"MEAN_ANOMALY":230.5781,"EPHEMERIS_TYPE":0,"CLASSIFICATION_TYPE":"U","NORAD_CAT_ID":65038,"ELEMENT_SET_NO":999,"REV_AT_EPOCH":3426,"BSTAR":0.0008725664,"MEAN_MOTION_DOT":0.00025576,"MEAN_MOTION_DDOT":0}]
